STARLINK-4694           
1 53708U 22107J   22262.91667824  .00048015  00000+0  34477-3 0  9997
2 53708  53.2138 199.7513 0001191 115.8654  56.1915 15.73186638  1303
STARLINK-4685           
1 53709U 22107K   22262.91667824 -.00024418  00000+0 -16996-3 0  9997
2 53709  53.2140 199.7624 0001445 124.1018  42.5953 15.73213380  1305
STARLINK-4696           
1 53710U 22107L   22262.91667824  .00172912  22305-4  50864-3 0  9999
2 53710  53.2120 198.6980 0007181 320.2621   4.3909 15.92330967  1309
STARLINK-4627           
1 53711U 22107M   22262.91667824  .00002815  00000+0  24442-4 0  9991
2 53711  53.2140 199.7636 0001621 116.2044  49.8614 15.73230922  1303
STARLINK-4683           
1 53712U 22107N   22262.91667824 -.00060335  00000+0 -42794-3 0  9994
2 53712  53.2140 199.7610 0001590 121.0219  46.2801 15.73232349  1303
STARLINK-4698           
1 53713U 22107P   22262.91667824  .00033794  00000+0  24424-3 0  9992
2 53713  53.2138 199.7660 0001633 117.5312  47.3766 15.73198798  1309
STARLINK-4688           
1 53714U 22107Q   22262.91667824  .00021243  00000+0  15543-3 0  9991
2 53714  53.2140 199.7646 0001402 113.8758  51.6392 15.73193523  2455
STARLINK-4686           
1 53715U 22107R   22262.91667824  .00043024  00000+0  30962-3 0  9995
2 53715  53.2139 199.7694 0001209 122.2161  40.8902 15.73182819  2446
STARLINK-4699           
1 53716U 22107S   22262.91667824 -.00041600  00000+0 -29324-3 0  9996
2 53716  53.2140 199.7684 0001373 116.1410  47.5773 15.73216361  1303
STARLINK-4702           
1 53717U 22107T   22262.91667824  .00168803  21764-4  49923-3 0  9992
2 53717  53.2117 198.7066 0007511 323.9347 356.5979 15.92232579  2456
STARLINK-4695           
1 53718U 22107U   22262.91667824  .00032723  00000+0  23665-3 0  9994
2 53718  53.2138 199.7671 0001301 119.5179  44.8052 15.73200723  2449
STARLINK-4644           
1 53719U 22107V   22262.91667824  .00140296  18257-4  46088-3 0  9992
2 53719  53.2118 198.8155 0007828 290.2839 337.6391 15.90269505  1300
STARLINK-4642           
1 53720U 22107W   22262.91667824 -.00032237  00000+0 -22613-3 0  9991
2 53720  53.2139 199.7708 0001421 115.7991  46.7251 15.73201917  1309
STARLINK-4707           
1 53721U 22107X   22262.91667824 -.00013922  00000+0 -94951-4 0  9997
2 53721  53.2140 199.7771 0001473 120.6008  38.9233 15.73196705  2440
STARLINK-4700           
1 53722U 22107Y   22262.91667824 -.00048667  00000+0 -34403-3 0  9997
2 53722  53.2139 199.7748 0001335 124.5851  36.1364 15.73220904  1307
STARLINK-4705           
1 53723U 22107Z   22262.91667824  .00034466  00000+0  24897-3 0  9994
2 53723  53.2138 199.7795 0001291 128.9560  29.3664 15.73200770  2447
STARLINK-4663           
1 53724U 22107AA  22262.91667824  .00034360  00000+0  24821-3 0  9995
2 53724  53.2137 199.7756 0001267 130.0786  30.0693 15.73201967  2441
STARLINK-4704           
1 53725U 22107AB  22262.91667824  .00163900  21141-4  48736-3 0  9994
2 53725  53.2114 198.7110 0007630 324.4152 354.0270 15.92138643  2458
STARLINK-4697           
1 53726U 22107AC  22262.91667824 -.00009181  00000+0 -61073-4 0  9993
2 53726  53.2138 199.7783 0001295 116.1670  42.7788 15.73198204  1300
STARLINK-4701           
1 53727U 22107AD  22262.91667824  .00044114  00000+0  31722-3 0  9994
2 53727  53.2139 199.7831 0001341 122.7348  33.7724 15.73189807  2448
STARLINK-4640           
1 53728U 22107AE  22262.91667824  .00043187  00000+0  31062-3 0  9991
2 53728  53.2139 199.7818 0001122 135.5591  21.5841 15.73194135  2448
STARLINK-4651           
1 53729U 22107AF  22262.91667824  .00042970  00000+0  30910-3 0  9992
2 53729  53.2137 199.7867 0001231 126.9304  27.8212 15.73193454  1306
STARLINK-4641           
1 53730U 22107AG  22262.91667824  .00043526  00000+0  31302-3 0  9998
2 53730  53.2138 199.7844 0001195 126.5372  29.3928 15.73193739  1301
STARLINK-4636           
1 53731U 22107AH  22262.91667824 -.00002937  00000+0 -16513-4 0  9990
2 53731  53.2139 199.7892 0001275 120.5852  32.9889 15.73208049  2445
STARLINK-4661           
1 53732U 22107AJ  22262.91667824 -.00008862  00000+0 -58706-4 0  9994
2 53732  53.2139 199.7857 0001328 123.0174  32.3238 15.73232257  2441
STARLINK-4574           
1 53733U 22107AK  22262.91667824  .00032620  00000+0  23589-3 0  9992
2 53733  53.2137 199.7918 0001544 104.8615  47.5077 15.73204201  2442
STARLINK-4616           
1 53734U 22107AL  22262.91667824 -.00019466  00000+0 -13462-3 0  9997
2 53734  53.2139 199.7880 0001389 114.2115  39.9735 15.73196170  1305
STARLINK-4618           
1 53735U 22107AM  22262.91667824  .00008611  00000+0  65700-4 0  9999
2 53735  53.2137 199.7942 0001233 130.7075  20.4715 15.73201681  1306
STARLINK-4652           
1 53736U 22107AN  22262.91667824  .00043272  00000+0  31130-3 0  9991
2 53736  53.2139 199.7906 0001136 121.4651  31.5177 15.73188487  2447
STARLINK-4646           
1 53737U 22107AP  22262.91667824  .00033497  00000+0  24202-3 0  9992
2 53737  53.2137 199.7957 0001621 116.8510  33.6988 15.73210781  2449
STARLINK-4662           
1 53738U 22107AQ  22262.91667824  .00047717  00000+0  34271-3 0  9990
2 53738  53.2140 199.7930 0001072 110.5565  41.2104 15.73183846  2442
STARLINK-4613           
1 53739U 22107AR  22262.85959272  .00205509  26956-4  59972-3 0  9998
2 53739  53.2116 198.9834 0007749 323.7354  36.3148 15.92416869  2360
STARLINK-4607           
1 53740U 22107AS  22262.91667824  .00043845  00000+0  31548-3 0  9995
2 53740  53.2138 199.7965 0001588 121.0378  28.9491 15.73177895  2449
STARLINK-4614           
1 53741U 22107AT  22262.91667824  .00045608  00000+0  32792-3 0  9997
2 53741  53.2138 199.8004 0001114 102.3589  45.8573 15.73177824  2447
STARLINK-4637           
1 53742U 22107AU  22262.91667824  .00002874  00000+0  24867-4 0  9991
2 53742  53.2140 199.7979 0001579 124.6271  24.7648 15.73224393  2444
STARLINK-4645           
1 53743U 22107AV  22262.91667824  .00003821  00000+0  31649-4 0  9991
2 53743  53.2138 199.8028 0001280 128.3609  18.6671 15.73185825  1301
STARLINK-4670           
1 53744U 22107AW  22262.91667824 -.00015321  00000+0 -10487-3 0  9998
2 53744  53.2139 199.7992 0001161 109.9420  38.8608 15.73216683  2443
STARLINK-4656           
1 53745U 22107AX  22262.91667824  .00045401  00000+0  32628-3 0  9990
2 53745  53.2137 199.8041 0001501 119.5542  26.8514 15.73190780  1304
STARLINK-4589           
1 53746U 22107AY  22262.91667824  .00006215  00000+0  48674-4 0  9990
2 53746  53.2138 199.8016 0001197 129.3995  18.2271 15.73195888  1309
STARLINK-4657           
1 53747U 22107AZ  22262.91667824  .00338860  56778-4  82533-3 0  9994
2 53747  53.2114 198.5421 0006241 305.4802  94.1470 15.95712167  2459
STARLINK-4669           
1 53748U 22107BA  22262.91667824 -.00059279  00000+0 -42029-3 0  9999
2 53748  53.2138 199.8052 0001582 118.3430  27.4755 15.73234090  1309
STARLINK-4680           
1 53749U 22107BB  22262.91667824  .00042435  00000+0  30552-3 0  9992
2 53749  53.2154 199.8066 0001317 100.6769  44.5485 15.73178544  2445
STARLINK-4612           
1 53750U 22107BC  22262.91667824 -.00037773  00000+0 -26563-3 0  9992
2 53750  53.2139 199.8077 0001525  99.7904  44.8540 15.73224799  2441
FALCON 9 DEB            
1 53751U 22107BD  22262.85329321  .00262431  37569-4  70831-3 0  9994
2 53751  53.2119 198.9396 0006856 316.0752  43.9731 15.93843998  2365
SHERPA-LTC2             
1 53752U 22107BE  22262.86369703  .00241053  32998-4  69652-3 0  9991
2 53752  53.2100 199.0092 0009901 334.2938  25.7597 15.92525044  2358
FALCON 9 DEB            
1 53753U 22107BF  22262.85848693  .00291862  43806-4  79838-3 0  9991
2 53753  53.2089 198.9747 0009158 313.0151  47.0110 15.93533201  2359
FALCON 9 DEB            
1 53754U 22107BG  22262.87110060  .00126172  16894-4  41453-3 0  9994
2 53754  53.2130 199.0619 0009503 321.2551  38.7794 15.90294056  2361
FALCON 9 DEB            
1 53755U 22107BH  22262.84792198  .00311203  49059-4  79358-3 0  9995
2 53755  53.2063 198.9029 0004994 310.8677  49.1919 15.94891149  2356
FALCON 9 DEB            
1 53756U 22107BJ  22262.84521002  .00305951  47887-4  76937-3 0  9990
2 53756  53.2069 198.8845 0006069 297.1492  62.8918 15.95142117  2351
CENTISPACE-1 S3         
1 53757U 22108A   22262.85643473  .00000016  00000+0  43177-4 0  9996
2 53757  53.5336 290.0388 0009005 319.6633  40.3659 14.58246235  2008
CENTISPACE-1 S4         
1 53758U 22108B   22262.86148070  .00000428  00000+0  13303-3 0  9995
2 53758  53.5307 290.0619 0008538 301.7483  58.2656 14.57715833  2008
KZ-1A R/B               
1 53759U 22108C   22262.76874552  .00450817  99890-5  71354-3 0  9998
2 53759  53.5614 283.2689 0368106 119.9829 243.8169 15.39599350  2099
YAOGAN-35 05A           
1 53760U 22109A   22262.55566631  .00011287  00000+0  46533-3 0  9998
2 53760  34.9990 301.4007 0006890  13.5335 113.0331 15.23269898  2046
YAOGAN-35 05B           
1 53761U 22109B   22262.21267912  .00009520  00000+0  39333-3 0  9999
2 53761  34.9995 303.5056 0005587  28.8872  34.6418 15.23234040  1950
CZ-2D DEB               
1 53762U 22109C   22262.81973978  .00017960  00000+0  72288-3 0  9995
2 53762  34.9992 299.6574 0009053  30.9940 135.9362 15.23988796  2048
YAOGAN-35 05C           
1 53763U 22109D   22262.85493056  .00007471  00000+0  30965-3 0  9996
2 53763  34.9994 299.5075 0005943  32.3338 301.7117 15.23170534  2041
CZ-2D R/B               
1 53764U 22109E   22262.82135720  .00030525  00000+0  12268-2 0  9996
2 53764  35.0033 299.6774 0008140  21.9562 144.1160 15.23961249  2048
EUTELSAT KONNECT VHTS   
1 53765U 22110A   22262.54166667 -.00000300  00000+0  00000+0 0  9999
2 53765   3.4604 141.3677 8010353 180.6479 336.5636  1.16143446   146
ARIANE 5 R/B            
1 53766U 22110B   22261.68288242  .00000292  00000+0  16246-2 0  9999
2 53766   3.2292 148.8291 8156737 173.4242 216.1536  1.26369418   149
